{"type":"FeatureCollection","features":[{"type":"Feature","geometry":{"type":"LineString","coordinates":[[-78.8915,36.5468],[-78.4459,35.9482],[-77.7125,35.7485],[-77.2094,35.2297],[-76.2044,34.9057],[-75.1429,35.0675],[-74.1267,34.8406],[-72.8478,35.2814],[-71.7725,36.1534],[-70.5343,36.6805],[-69.7882,36.25],[-68.9117,36.2721],[-68.1394,35.9322]]},"properties":{"id":1,"source":704,"mouth":707,"parent":30,"basin":30,"widthFactor":1,"sourceWidth":0.05,"discharge":46,"name":"Craftes","type":"River"}},{"type":"Feature","geometry":{"type":"LineString","coordinates":[[140.0666,-3.3047],[140.7406,-4.3175],[141.7589,-4.9834],[142.5018,-5.9268],[142.6349,-6.4383],[143.0689,-6.7151],[143.452,-7.3405],[144.1466,-7.6113],[144.592,-8.1659]]},"properties":{"id":2,"source":2405,"mouth":2670,"parent":0,"basin":2,"widthFactor":1.2,"sourceWidth":0.05,"discharge":123,"name":"Winchleach","type":"River"}},{"type":"Feature","geometry":{"type":"LineString","coordinates":[[86.787,-19.6024],[86.8864,-20.8658],[87.451,-22.0107],[87.6434,-23.2503],[88.4011,-23.133],[88.9777,-22.564],[89.6992,-22.3563],[91.1233,-23.0638],[92.696,-23.3163],[94.1499,-23.9328],[94.8174,-22.6865],[95.063,-21.2666],[95.6462,-19.9856],[96.9673,-20.1828],[98.2922,-19.9153],[99.6141,-20.0195],[100.5445,-20.4887],[101.5964,-20.5183],[102.5511,-20.8996],[103.4443,-21.1967],[104.3909,-21.047],[105.2947,-21.2548],[106.2264,-20.8101],[106.9188,-19.9987],[107.8027,-19.4807],[108.6976,-20.076],[109.7596,-20.2706],[110.688,-20.7858],[111.5476,-20.0899],[112.1071,-19.0983],[112.9067,-18.3432],[114.4779,-17.7251],[115.9051,-16.8027]]},"properties":{"id":3,"source":3235,"mouth":3129,"parent":8,"basin":8,"widthFactor":1,"sourceWidth":0.05,"discharge":190,"name":"Bozheche","type":"Fork"}},{"type":"Feature","geometry":{"type":"LineString","coordinates":[[-81.1715,3.3146],[-80.461,3.4715],[-79.9261,3.9831],[-78.5657,3.5871],[-77.1401,3.6756],[-75.7667,3.3765],[-75.5226,2.3387],[-74.8573,1.4974],[-74.529,0.4989],[-73.9125,0.0252],[-73.1209,-0.0126],[-72.4694,-0.3991],[-71.52,-0.1274],[-70.7648,0.5626],[-69.8542,0.918],[-68.5043,0.235],[-67.0102,-0.0161],[-65.6315,-0.6126],[-64.4534,-0.9985],[-63.2046,-0.9402],[-62.0123,-1.2373],[-61.2754,-1.3946],[-60.5495,-1.1087],[-59.8148,-1.1774]]},"properties":{"id":4,"source":2067,"mouth":2330,"parent":0,"basin":4,"widthFactor":1.2,"sourceWidth":0.04,"discharge":292,"name":"Tremave","type":"River"}},{"type":"Feature","geometry":{"type":"LineString","coordinates":[[137.5434,0.3273],[137.0741,0.699],[136.4545,0.5971],[135.9551,0.8741],[134.9999,1.6754],[133.8095,2.0532],[132.8072,2.7698],[132.2809,2.3714],[132.1205,1.6803],[131.6673,1.2233]]},"properties":{"id":5,"source":2273,"mouth":2140,"parent":0,"basin":5,"widthFactor":1.2,"sourceWidth":0.05,"discharge":84,"name":"Flokhamp","type":"River"}},{"type":"Feature","geometry":{"type":"LineString","coordinates":[[151.9031,13.7774],[152.3092,12.6564],[153.129,11.7869],[153.6179,10.7162],[153.4479,10.1299],[153.7476,9.5592],[153.6715,8.9761]]},"properties":{"id":6,"source":1640,"mouth":1761,"parent":0,"basin":6,"widthFactor":1.2,"sourceWidth":0.05,"discharge":97,"name":"Bolmere","type":"River"}},{"type":"Feature","geometry":{"type":"LineString","coordinates":[[91.3507,-17.2776],[92.0695,-17.7177],[92.9296,-17.6812],[93.6766,-18.0259],[94.2033,-18.8207],[95.0546,-19.2616],[95.6462,-19.9856]]},"properties":{"id":7,"source":3120,"mouth":3121,"parent":3,"basin":8,"widthFactor":1,"sourceWidth":0.04,"discharge":35,"name":"Ovologo","type":"River"}},{"type":"Feature","geometry":{"type":"LineString","coordinates":[[92.1497,-12.4404],[93.3911,-12.834],[94.7029,-12.7341],[95.9585,-13.029],[96.5936,-13.2148],[97.223,-13.0091],[98.698,-12.7392],[100.0379,-12.0099],[101.4859,-11.6481],[101.8194,-13.1504],[102.5789,-14.4907],[102.9976,-15.9605],[103.7213,-15.2871],[104.0918,-14.33],[104.7449,-13.5998],[105.1667,-14.2752],[105.8926,-14.6207],[106.3753,-15.2302],[107.1567,-15.274],[107.8654,-14.874],[108.6323,-14.829],[109.3309,-14.4814],[109.7661,-13.7856],[110.4121,-13.3683],[111.0503,-13.6774],[111.7695,-13.558],[112.4238,-13.7814],[112.6286,-14.4767],[113.1884,-14.952],[113.4642,-15.6033],[114.6151,-16.3564],[115.9051,-16.8027],[117.1412,-16.4094],[118.2463,-15.7111],[118.6827,-14.7394],[118.8153,-13.6756]]},"properties":{"id":8,"source":2890,"mouth":3017,"parent":0,"basin":8,"widthFactor":1.2,"sourceWidth":0.04,"discharge":526,"name":"Ksniaroko","type":"River"}},{"type":"Feature","geometry":{"type":"LineString","coordinates":[[-76.5503,-2.7319],[-75.5767,-2.635],[-74.7412,-2.0603],[-73.7952,-1.8678],[-73.2164,-1.5124],[-72.9798,-0.8216],[-72.4694,-0.3991]]},"properties":{"id":9,"source":2324,"mouth":2325,"parent":4,"basin":4,"widthFactor":1,"sourceWidth":0.06,"discharge":48,"name":"Picleston","type":"Fork"}},{"type":"Feature","geometry":{"type":"LineString","coordinates":[[-80.0028,14.1146],[-78.9924,14.7454],[-78.2919,15.7566],[-77.3435,16.4634],[-76.745,17.0773],[-76.5427,17.9542],[-76.0234,18.6206],[-75.3208,18.255],[-74.5147,18.3578],[-73.7914,18.0858],[-72.4951,17.3685],[-71.0372,17.0925],[-69.7086,16.4634],[-69.0584,17.2522],[-68.7931,18.2758],[-68.2199,19.1115],[-67.6237,19.691],[-67.3892,20.5297],[-66.8654,21.161]]},"properties":{"id":11,"source":1571,"mouth":1364,"parent":0,"basin":11,"widthFactor":1.2,"sourceWidth":0.06,"discharge":179,"name":"Berton","type":"River"}},{"type":"Feature","geometry":{"type":"LineString","coordinates":[[-77.2017,-8.3534],[-76.3009,-8.4704],[-75.4424,-8.0904],[-74.5501,-8.108],[-73.4725,-8.2456],[-72.4194,-7.8945],[-71.3467,-7.9344],[-70.303,-7.0819],[-69.5918,-5.8961],[-68.6146,-4.9769],[-68.6476,-3.7603],[-69.1265,-2.6302],[-69.2487,-1.4308],[-68.0051,-1.3397],[-66.8562,-0.7945],[-65.6315,-0.6126]]},"properties":{"id":14,"source":2582,"mouth":2327,"parent":4,"basin":4,"widthFactor":1,"sourceWidth":0.06,"discharge":73,"name":"Charnering","type":"River"}},{"type":"Feature","geometry":{"type":"LineString","coordinates":[[84.2235,6.6013],[83.6728,7.9515],[82.7107,9.046],[82.0777,10.345],[83.4479,10.6838],[84.6496,11.4794],[85.9862,11.9095],[86.3701,13.0195],[86.3003,14.2165],[86.5935,15.3439],[86.674,16.5649],[86.3026,17.7451],[86.2927,18.9579]]},"properties":{"id":15,"source":1989,"mouth":1508,"parent":170,"basin":170,"widthFactor":1,"sourceWidth":0.05,"discharge":115,"name":"Zizha","type":"Fork"}},{"type":"Feature","geometry":{"type":"LineString","coordinates":[[-92.8643,31.8812],[-94.2148,32.0213],[-95.5451,31.6631],[-96.8915,31.7035],[-97.5999,32.0371],[-98.3926,31.8893],[-99.1178,32.1266],[-100.0011,32.0612],[-100.7565,31.534],[-101.6143,31.3763],[-101.9415,32.6368],[-102.6848,33.7094],[-103.0953,34.9324],[-104.1762,35.4502],[-105.3807,35.5216],[-106.4864,35.9501],[-106.0404,36.6911],[-106.0069,37.5885],[-105.6434,38.3608],[-105.877,39.5914],[-106.5181,40.6723],[-106.8332,41.8729],[-106.0986,42.3284],[-105.6502,43.112],[-104.9729,43.633],[-104.6853,44.8067],[-104.8149,46.0262],[-104.6108,47.2091],[-105.0482,47.8004],[-105.7459,48.0576],[-106.2354,48.582],[-106.6863,50.8232],[-107.4501,52.9703],[-108.0575,53.2935],[-108.7395,53.2916],[-108.9975,53.9207],[-109.5078,54.3512]]},"properties":{"id":16,"source":869,"mouth":278,"parent":0,"basin":16,"widthFactor":1.2,"sourceWidth":0.06,"discharge":596,"name":"Clitle","type":"River"}},{"type":"Feature","geometry":{"type":"LineString","coordinates":[[-92.5309,43.9124],[-92.8677,44.3613],[-93.4546,44.3848],[-93.8414,44.7486],[-94.6545,45.3745],[-95.6717,45.5597],[-96.5256,46.0976],[-97.5319,46.6624],[-98.6887,46.773],[-99.7252,47.247],[-100.1401,47.9063],[-100.8636,48.2195],[-101.3403,48.8095],[-101.8957,49.8217],[-102.7981,50.5418],[-103.4229,51.4956],[-104.7071,52.1597],[-106.1368,52.3924],[-107.4501,52.9703]]},"properties":{"id":17,"source":447,"mouth":281,"parent":16,"basin":16,"widthFactor":1,"sourceWidth":0.05,"discharge":98,"name":"Draxted","type":"River"}},{"type":"Feature","geometry":{"type":"LineString","coordinates":[[42.5199,-2.5823],[42.3817,-1.3928],[41.7842,-0.3449],[41.5542,0.8162],[40.2515,0.5709],[39.097,-0.1388],[37.8239,-0.4769],[38.351,1.0087],[38.429,2.6051],[38.8662,4.1129],[38.503,4.8487],[37.7945,5.2782],[37.3622,5.9528],[37.5013,6.5881],[37.1953,7.1933],[37.2453,7.8226],[37.4464,8.6013],[37.2087,9.3956],[37.322,10.1774]]},"properties":{"id":18,"source":2364,"mouth":1834,"parent":0,"basin":18,"widthFactor":1.2,"sourceWidth":0.05,"discharge":68,"name":"Pesov","type":"River"}},{"type":"Feature","geometry":{"type":"LineString","coordinates":[[-86.7755,-32.8191],[-87.3292,-33.7327],[-87.4375,-34.8301],[-87.9021,-35.7805],[-88.6748,-36.7521],[-89.0436,-37.9737],[-89.7356,-38.9953]]},"properties":{"id":19,"source":3821,"mouth":3939,"parent":0,"basin":19,"widthFactor":1.2,"sourceWidth":0.05,"discharge":57,"name":"Bostow","type":"River"}},{"type":"Feature","geometry":{"type":"LineString","coordinates":[[-103.7697,-24.5215],[-104.4176,-26.027],[-104.608,-27.6801],[-105.1644,-29.2151],[-105.6274,-29.6961],[-105.677,-30.4097],[-106.0573,-30.9373]]},"properties":{"id":20,"source":3418,"mouth":3559,"parent":0,"basin":20,"widthFactor":1.2,"sourceWidth":0.06,"discharge":67,"name":"Horsterwick","type":"River"}},{"type":"Feature","geometry":{"type":"LineString","coordinates":[[52.6933,-39.7058],[53.0305,-40.2186],[53.5977,-40.4122],[53.6502,-41.7116],[54.1637,-42.9171],[54.3085,-44.1978],[53.7981,-44.9833],[53.7143,-45.9519],[53.2892,-46.7741],[53.0264,-47.3887],[53.213,-48.0665],[53.0401,-48.6938],[52.6867,-49.4152],[52.7666,-50.2472],[52.4998,-50.9907],[51.9575,-51.6169],[51.7971,-52.4686],[51.3311,-53.1399],[51.6195,-54.7817],[52.3221,-56.2952],[52.6933,-57.9113],[51.8963,-58.252],[51.3356,-58.9616],[50.5858,-59.3761],[49.7682,-60.3835],[49.3039,-61.6262],[48.5569,-62.6807],[48.2004,-63.5227],[48.2466,-64.4615],[47.9706,-65.3228],[48.9597,-66.1388],[50.1164,-66.6639],[49.5126,-67.636],[49.2006,-68.7472],[48.9442,-70.2236],[49.0033,-71.7226]]},"properties":{"id":21,"source":4115,"mouth":5139,"parent":0,"basin":21,"widthFactor":1.2,"sourceWidth":0.05,"discharge":363,"name":"Doresk","type":"River"}},{"type":"Feature","geometry":{"type":"LineString","coordinates":[[97.5679,-2.0235],[98.7949,-2.2642],[100.0373,-2.0063],[101.2675,-2.1472],[101.6857,-3.2073],[102.5017,-4.0069],[102.9995,-5.0149],[103.8695,-4.9088],[104.5905,-4.3478],[105.4308,-4.1508],[106.607,-4.4809],[107.8347,-4.3416],[109.0212,-4.5778],[109.1299,-5.4934],[109.6613,-6.2603],[109.8546,-7.1461],[111.0633,-7.5914],[112.3604,-7.5887],[113.5868,-7.9443],[114.158,-8.4452],[114.9234,-8.5437],[115.5334,-8.9641],[115.9393,-9.9253],[116.7003,-10.642],[117.1772,-11.5543],[117.5925,-12.3709],[118.3346,-12.9138],[118.8153,-13.6756]]},"properties":{"id":22,"source":2386,"mouth":2782,"parent":0,"basin":22,"widthFactor":1.2,"sourceWidth":0.04,"discharge":245,"name":"Bolokologo","type":"River"}},{"type":"Feature","geometry":{"type":"LineString","coordinates":[[-75.9295,54.3991],[-76.4204,55.5782],[-77.3158,56.4903],[-77.8876,57.616],[-77.9437,58.3414],[-78.4407,58.8979],[-78.585,59.5896],[-78.6044,60.603],[-79.075,61.5158],[-79.1847,62.5091],[-79.1713,63.7035],[-79.6065,64.8287],[-79.6828,66.0093],[-79.3069,67.2232],[-79.371,68.5138],[-79.0831,69.743],[-79.2031,70.6155],[-79.7352,71.3306],[-79.9376,72.1716],[-80.0905,73.2475],[-80.6547,74.1847],[-80.8898,75.2328],[-80.7128,75.8584],[-80.8764,76.488]]},"properties":{"id":23,"source":251,"mouth":38,"parent":0,"basin":23,"widthFactor":1.2,"sourceWidth":0.05,"discharge":56,"name":"Bucking","type":"River"}},{"type":"Feature","geometry":{"type":"LineString","coordinates":[[41.196,-37.5286],[40.6956,-38.3656],[40.6446,-39.3751],[40.2342,-40.2466],[39.5276,-40.4734],[39.0195,-41.0328],[38.0876,-40.8041],[37.1384,-41.0557],[36.2031,-40.9231],[35.5034,-40.3047],[34.5844,-40.0998],[33.8408,-39.5641],[33.1278,-38.9165],[32.1903,-38.6706],[31.4325,-38.1033],[30.6906,-38.1251],[30.0647,-38.588],[29.346,-38.698],[28.6051,-38.0852],[27.6617,-37.8703],[26.8803,-37.337],[26.227,-36.9433],[25.4491,-36.9735],[24.7708,-36.6645]]},"properties":{"id":24,"source":4110,"mouth":3993,"parent":0,"basin":24,"widthFactor":1.2,"sourceWidth":0.06,"discharge":102,"name":"Vererere","type":"River"}},{"type":"Feature","geometry":{"type":"LineString","coordinates":[[97.3552,-41.6095],[97.1655,-42.1421],[97.359,-42.6732],[97.1043,-43.8806],[97.3187,-45.116],[97.1578,-46.329],[97.2464,-47.3745],[97.7794,-48.2908],[97.9568,-49.3104],[97.8839,-49.8768],[98.2551,-50.3476],[98.271,-50.8949],[98.1169,-51.7188],[98.4087,-52.5284],[98.3438,-53.3494]]},"properties":{"id":25,"source":4241,"mouth":4722,"parent":0,"basin":25,"widthFactor":1.2,"sourceWidth":0.04,"discharge":99,"name":"Odetshesk","type":"River"}},{"type":"Feature","geometry":{"type":"LineString","coordinates":[[115.5046,-36.4011],[115.431,-37.0424],[115.8272,-37.5871],[115.8476,-38.2091],[115.364,-39.2741],[115.3326,-40.472],[114.9394,-41.5636],[114.8995,-42.2356],[115.3091,-42.7991],[115.359,-43.4494],[115.9373,-44.2185],[116.8118,-44.6298],[117.4493,-45.3273]]},"properties":{"id":26,"source":4028,"mouth":4363,"parent":0,"basin":26,"widthFactor":1.2,"sourceWidth":0.05,"discharge":90,"name":"Golovets","type":"River"}},{"type":"Feature","geometry":{"type":"LineString","coordinates":[[-124.7144,-24.1344],[-125.1631,-24.7492],[-125.1686,-25.5531],[-125.5287,-26.2058],[-125.8328,-26.6549],[-125.6816,-27.2251],[-125.8946,-27.6984],[-126.4611,-28.2596],[-126.6396,-29.0809],[-127.1285,-29.694]]},"properties":{"id":27,"source":3273,"mouth":3544,"parent":0,"basin":27,"widthFactor":1.2,"sourceWidth":0.04,"discharge":51,"name":"Birmouthton","type":"River"}},{"type":"Feature","geometry":{"type":"LineString","coordinates":[[-110.6114,-22.9869],[-110.6451,-23.9786],[-110.2065,-24.8874],[-110.1458,-25.8625],[-109.9271,-26.6147],[-109.3068,-27.1128],[-109.0078,-27.8142]]},"properties":{"id":28,"source":3278,"mouth":3414,"parent":0,"basin":28,"widthFactor":1.2,"sourceWidth":0.06,"discharge":74,"name":"Merham","type":"River"}},{"type":"Feature","geometry":{"type":"LineString","coordinates":[[-68.8847,-28.3011],[-68.3219,-29.2404],[-67.4051,-29.8436],[-66.7715,-30.7157],[-66.5688,-31.7828],[-65.9292,-32.67],[-65.6392,-33.7011],[-65.5838,-34.3632],[-65.1,-34.8468],[-64.959,-35.4732],[-63.7967,-36.3027],[-62.4284,-36.7114],[-61.2249,-37.4568],[-60.2796,-37.8394],[-59.2484,-37.766],[-58.2859,-38.0574],[-58.0299,-39.2125],[-57.3665,-40.1972],[-57.0291,-41.3182],[-56.6299,-41.9973],[-55.9226,-42.3606],[-55.4618,-42.9765],[-56.2376,-43.8964],[-56.6562,-45.0576],[-57.3605,-46.0257],[-57.6096,-46.6063],[-57.4435,-47.2487],[-57.6096,-47.8417],[-57.0553,-48.5801],[-56.2278,-48.9957],[-55.6189,-49.6696]]},"properties":{"id":29,"source":3576,"mouth":4532,"parent":0,"basin":29,"widthFactor":1.2,"sourceWidth":0.05,"discharge":218,"name":"Witrinchel","type":"River"}},{"type":"Feature","geometry":{"type":"LineString","coordinates":[[-69.9442,42.0605],[-69.6857,41.0054],[-68.9926,40.1602],[-68.6472,39.147],[-68.6634,38.0436],[-68.216,37.0197],[-68.1394,35.9322],[-68.0047,35.1363],[-67.5321,34.4953],[-66.2765,33.545],[-64.799,33.0066],[-63.4991,32.1386],[-63.9457,31.2861],[-63.9671,30.2932],[-64.3287,29.4126],[-64.7586,28.6961],[-64.7747,27.8269],[-65.1219,27.0798]]},"properties":{"id":30,"source":531,"mouth":975,"parent":0,"basin":30,"widthFactor":1.2,"sourceWidth":0.05,"discharge":134,"name":"Aylesbury","type":"River"}},{"type":"Feature","geometry":{"type":"LineString","coordinates":[[-88.5113,-32.7353],[-89.1551,-32.4766],[-89.8403,-32.7149],[-90.4924,-32.5557],[-91.6358,-33.0652],[-92.5311,-33.9904],[-93.6249,-34.5831]]},"properties":{"id":31,"source":3820,"mouth":3819,"parent":61,"basin":61,"widthFactor":1,"sourceWidth":0.05,"discharge":58,"name":"Prestabrid","type":"River"}},{"type":"Feature","geometry":{"type":"LineString","coordinates":[[149.9355,7.645],[150.4687,7.8507],[150.6939,8.4385],[151.1655,8.7206],[152.0192,8.6109],[152.827,8.9883],[153.6715,8.9761]]},"properties":{"id":32,"source":1890,"mouth":1760,"parent":0,"basin":32,"widthFactor":1.2,"sourceWidth":0.06,"discharge":107,"name":"Burtondon","type":"Creek"}},{"type":"Feature","geometry":{"type":"LineString","coordinates":[[149.8627,6.0266],[150.2019,5.358],[150.8905,5.0305],[151.2996,4.4302],[151.1948,3.7099],[151.5564,3.0491],[151.5449,2.3408]]},"properties":{"id":33,"source":1892,"mouth":2019,"parent":0,"basin":33,"widthFactor":1.2,"sourceWidth":0.06,"discharge":78,"name":"Skiping","type":"Stream"}},{"type":"Feature","geometry":{"type":"LineString","coordinates":[[-85.67,53.2337],[-86.1136,53.7411],[-86.8022,53.8198],[-87.2947,54.2415],[-87.9332,54.2387],[-88.4596,53.8623],[-88.751,55.2629],[-89.4762,56.4996],[-89.8544,57.8674],[-89.9557,58.812],[-90.4887,59.6119],[-90.6763,60.5275],[-91.6571,60.8371],[-92.691,60.6853],[-93.6824,60.9027],[-93.1713,61.4877],[-92.9677,62.2497],[-92.8478,62.9322],[-93.1587,63.578],[-93.1249,64.2532],[-93.6941,65.1289],[-94.5709,65.6979],[-95.2017,66.5122],[-95.6289,67.1196],[-96.3277,67.3942],[-96.8092,67.935]]},"properties":{"id":36,"source":288,"mouth":94,"parent":0,"basin":36,"widthFactor":1.2,"sourceWidth":0.08,"discharge":155,"name":"Quatham","type":"River"}},{"type":"Feature","geometry":{"type":"LineString","coordinates":[[110.5022,-38.0175],[109.7723,-38.4551],[109.3695,-39.2571],[108.7051,-39.7676],[108.0909,-39.9555],[107.6839,-40.4701],[108.3221,-41.7388],[109.3366,-42.7293],[110.05,-43.9424],[109.868,-44.8016],[110.1395,-45.6613],[110.0481,-46.5206]]},"properties":{"id":37,"source":4138,"mouth":4359,"parent":0,"basin":37,"widthFactor":1.2,"sourceWidth":0.05,"discharge":92,"name":"Prolomanov","type":"River"}},{"type":"Feature","geometry":{"type":"LineString","coordinates":[[72.2165,-53.7685],[72.282,-54.5743],[72.8,-55.2165],[72.956,-55.9896],[73.2198,-57.0086],[73.9067,-57.8149],[74.255,-58.7914],[74.2886,-59.863],[74.7731,-60.8331],[74.8969,-61.8845],[75.8054,-62.5809],[76.9205,-62.8567],[77.8704,-63.469],[79.1366,-63.3705],[80.3075,-62.8181],[81.5547,-62.6288],[82.0131,-63.4312],[82.7975,-63.9272],[83.3211,-64.6683]]},"properties":{"id":38,"source":4807,"mouth":5010,"parent":0,"basin":38,"widthFactor":1.2,"sourceWidth":0.07,"discharge":205,"name":"Smere","type":"River"}},{"type":"Feature","geometry":{"type":"LineString","coordinates":[[-67.9344,-21.9313],[-67.1239,-21.8375],[-66.4765,-21.2747],[-65.6986,-21.0871],[-64.7881,-20.3543],[-64.2219,-19.2884],[-63.3803,-18.4889],[-62.7742,-17.68],[-62.5785,-16.6517],[-62.0545,-15.7989]]},"properties":{"id":39,"source":3295,"mouth":3061,"parent":68,"basin":68,"widthFactor":1,"sourceWidth":0.06,"discharge":62,"name":"Casthambe","type":"Fork"}},{"type":"Feature","geometry":{"type":"LineString","coordinates":[[-78.6425,-36.2175],[-78.9168,-37.1071],[-78.7144,-38.0443],[-78.8935,-38.9435],[-79.6585,-38.8347],[-80.3821,-39.1151],[-81.8093,-39.1221],[-83.1746,-39.6055],[-84.5895,-39.7078],[-84.9975,-40.0805],[-85.0097,-40.6838],[-85.3386,-41.1027],[-86.1255,-41.8714],[-86.5577,-42.9218],[-87.2737,-43.7468]]},"properties":{"id":41,"source":3943,"mouth":4158,"parent":0,"basin":41,"widthFactor":1.2,"sourceWidth":0.09,"discharge":228,"name":"Hatfordling","type":"River"}},{"type":"Feature","geometry":{"type":"LineString","coordinates":[[82.4781,-48.5581],[83.4439,-49.646],[84.7143,-50.349],[85.7409,-51.3599],[86.2788,-52.1045],[87.1244,-52.4793],[87.7239,-53.1499],[88.349,-53.3778],[88.9941,-53.2217],[89.5479,-54.0124],[90.4096,-54.4561],[91.025,-55.1774]]},"properties":{"id":42,"source":4602,"mouth":4815,"parent":0,"basin":42,"widthFactor":1.2,"sourceWidth":0.04,"discharge":52,"name":"Oresk","type":"River"}},{"type":"Feature","geometry":{"type":"LineString","coordinates":[[127.9619,-25.629],[128.5286,-25.1978],[128.7179,-24.4594],[129.2092,-23.9667],[129.8487,-23.8585],[130.2816,-23.3108],[130.8798,-23.1146]]},"properties":{"id":43,"source":3516,"mouth":3379,"parent":0,"basin":43,"widthFactor":1.2,"sourceWidth":0.07,"discharge":71,"name":"Deremenets","type":"Creek"}},{"type":"Feature","geometry":{"type":"LineString","coordinates":[[125.9828,-23.388],[126.1539,-22.3681],[125.8461,-21.3586],[125.9214,-20.3408],[125.8029,-19.3773],[125.2399,-18.5725],[125.0325,-17.6408]]},"properties":{"id":44,"source":3377,"mouth":3251,"parent":0,"basin":44,"widthFactor":1.2,"sourceWidth":0.05,"discharge":59,"name":"Olgoros","type":"River"}},{"type":"Feature","geometry":{"type":"LineString","coordinates":[[-97.2786,49.4162],[-97.9704,50.8572],[-99.0609,52.0216],[-99.8325,53.4073],[-100.107,54.2613],[-100.7841,54.8628],[-101.1391,55.6663],[-101.5152,56.6194],[-102.2778,57.31],[-102.7312,58.2106],[-102.7303,58.9793],[-103.1692,59.6323],[-103.2562,60.3778]]},"properties":{"id":45,"source":325,"mouth":174,"parent":0,"basin":45,"widthFactor":1.2,"sourceWidth":0.06,"discharge":157,"name":"Pengay","type":"River"}},{"type":"Feature","geometry":{"type":"LineString","coordinates":[[-69.5112,57.6439],[-68.5084,57.4066],[-67.4884,57.6678],[-66.4822,57.5302],[-65.498,58.1345],[-64.8157,59.1138],[-63.8919,59.7931],[-63.1352,60.734],[-62.7742,61.9219],[-62.0966,62.9122],[-61.4245,63.3],[-61.0596,64.0354],[-60.449,64.4927]]},"properties":{"id":46,"source":219,"mouth":161,"parent":0,"basin":46,"widthFactor":1.2,"sourceWidth":0.05,"discharge":61,"name":"Grantham","type":"River"}},{"type":"Feature","geometry":{"type":"LineString","coordinates":[[-123.5879,-3.141],[-123.3027,-2.1913],[-123.4941,-1.1913],[-123.3043,-0.2315],[-123.8693,0.5891],[-124.7557,1.0528],[-125.385,1.802]]},"properties":{"id":47,"source":2305,"mouth":2174,"parent":54,"basin":54,"widthFactor":1,"sourceWidth":0.05,"discharge":44,"name":"Watchboury","type":"River"}},{"type":"Feature","geometry":{"type":"LineString","coordinates":[[-67.9229,-44.0102],[-68.5637,-44.4114],[-68.8607,-45.16],[-69.4327,-45.6306],[-69.9072,-45.9047],[-70.0256,-46.498],[-70.429,-46.8359],[-70.4764,-47.8872],[-70.0667,-48.8729],[-70.0228,-49.9111]]},"properties":{"id":48,"source":4275,"mouth":4396,"parent":0,"basin":48,"widthFactor":1.2,"sourceWidth":0.06,"discharge":77,"name":"Trewich","type":"River"}},{"type":"Feature","geometry":{"type":"LineString","coordinates":[[68.7353,31.1627],[67.9209,31.8491],[66.8785,32.0967],[66.0185,32.6953],[65.5718,33.2589],[64.8561,33.4213],[64.3555,33.9047],[63.6528,33.3951],[63.2891,32.5596],[62.6542,31.9849]]},"properties":{"id":49,"source":909,"mouth":818,"parent":0,"basin":49,"widthFactor":1.2,"sourceWidth":0.04,"discharge":94,"name":"Tebovl","type":"River"}},{"type":"Feature","geometry":{"type":"LineString","coordinates":[[136.9858,-2.4745],[136.332,-2.2518],[135.6619,-2.5277],[135.0048,-2.4047],[134.5581,-2.4144],[134.3181,-2.8637],[133.9127,-2.9614]]},"properties":{"id":51,"source":2404,"mouth":2403,"parent":0,"basin":51,"widthFactor":1.2,"sourceWidth":0.06,"discharge":72,"name":"Tineby","type":"Creek"}},{"type":"Feature","geometry":{"type":"LineString","coordinates":[[-110.5175,31.9909],[-110.879,32.553],[-111.5422,32.7276],[-111.964,33.2122],[-111.3269,34.3575],[-111.1267,35.6828],[-110.5769,36.8641],[-111.6461,37.1488],[-112.7533,36.9545],[-113.8301,37.1435],[-114.3879,38.2024],[-115.3043,38.9721],[-115.9338,39.9732],[-116.6338,39.7826],[-117.1181,39.1854],[-117.775,38.9135],[-118.6717,39.2498],[-119.6385,39.1345],[-120.5492,39.3805],[-121.4428,39.9071],[-122.4829,40.0102],[-123.4059,40.4521],[-123.9361,40.9593],[-124.6719,41.0782],[-125.2432,41.5078]]},"properties":{"id":52,"source":862,"mouth":596,"parent":0,"basin":52,"widthFactor":1.2,"sourceWidth":0.07,"discharge":292,"name":"Manchton","type":"River"}},{"type":"Feature","geometry":{"type":"LineString","coordinates":[[-99.7616,44.8124],[-100.3209,44.7588],[-100.6762,44.2538],[-101.1947,44.11],[-102.2099,45.2906],[-103.5338,46.1022],[-104.6108,47.2091]]},"properties":{"id":53,"source":444,"mouth":443,"parent":16,"basin":16,"widthFactor":1,"sourceWidth":0.05,"discharge":79,"name":"Watchetham","type":"River"}},{"type":"Feature","geometry":{"type":"LineString","coordinates":[[-128.6516,-5.4399],[-128.7421,-4.147],[-129.2993,-2.9666],[-129.4831,-1.6962],[-128.3215,-1.7983],[-127.1964,-1.4124],[-126.0422,-1.4169],[-125.6426,-0.3839],[-125.6943,0.749],[-125.385,1.802],[-125.2087,2.8613],[-125.4859,3.9182],[-125.4003,4.9769]]},"properties":{"id":54,"source":2430,"mouth":2048,"parent":0,"basin":54,"widthFactor":1.2,"sourceWidth":0.06,"discharge":129,"name":"Dodbrore","type":"River"}},{"type":"Feature","geometry":{"type":"LineString","coordinates":[[-76.1729,-44.112],[-76.3401,-44.873],[-76.0286,-45.6173],[-76.1001,-46.3749],[-75.8712,-47.456],[-75.2086,-48.3488],[-74.893,-49.3922],[-74.8626,-49.9749],[-74.4053,-50.3748],[-74.2895,-50.9208]]},"properties":{"id":56,"source":4272,"mouth":4520,"parent":0,"basin":56,"widthFactor":1.2,"sourceWidth":0.08,"discharge":95,"name":"Guildbury","type":"River"}},{"type":"Feature","geometry":{"type":"LineString","coordinates":[[33.0993,-5.0608],[32.3657,-3.7047],[31.2484,-2.6473],[30.4381,-1.351],[29.8094,-0.9277],[29.0329,-0.969],[28.3747,-0.6386],[28.0869,0.1476],[27.4169,0.6645],[27.0527,1.3969]]},"properties":{"id":57,"source":2493,"mouth":2224,"parent":0,"basin":57,"widthFactor":1.2,"sourceWidth":0.05,"discharge":45,"name":"Hozyr","type":"River"}},{"type":"Feature","geometry":{"type":"LineString","coordinates":[[-79.5372,-44.2936],[-80.0868,-45.2703],[-80.1869,-46.4194],[-80.6465,-47.4306],[-81.3369,-47.1704],[-82.0687,-47.3977],[-82.7674,-47.235],[-82.9327,-47.8533],[-82.6369,-48.4558],[-82.71,-49.071],[-83.4698,-49.2794],[-84.0588,-49.8213],[-84.543,-50.2981],[-84.7217,-50.9667]]},"properties":{"id":58,"source":4271,"mouth":4512,"parent":0,"basin":58,"widthFactor":1.2,"sourceWidth":0.05,"discharge":211,"name":"Withamney","type":"River"}},{"type":"Feature","geometry":{"type":"LineString","coordinates":[[119.0874,-22.5898],[119.7936,-21.8092],[120.0962,-20.76],[120.7217,-19.9257],[120.64,-18.9489],[120.1079,-18.1109],[119.9361,-17.1619],[120.2404,-16.389],[120.0889,-15.5411],[120.3021,-14.7532]]},"properties":{"id":59,"source":3374,"mouth":3018,"parent":0,"basin":59,"widthFactor":1.2,"sourceWidth":0.06,"discharge":156,"name":"Rzhislav","type":"River"}},{"type":"Feature","geometry":{"type":"LineString","coordinates":[[-116.2863,32.2922],[-116.6972,33.1575],[-117.4843,33.7138],[-117.9704,34.5173],[-119.3904,34.0931],[-120.6244,33.2194],[-122.0072,32.7053],[-122.8627,32.6074],[-123.5705,32.0542],[-124.3964,31.8652]]},"properties":{"id":60,"source":860,"mouth":857,"parent":0,"basin":60,"widthFactor":1.2,"sourceWidth":0.05,"discharge":110,"name":"Penkwar","type":"River"}},{"type":"Feature","geometry":{"type":"LineString","coordinates":[[-91.4331,-30.3705],[-92.3322,-31.6796],[-92.8101,-33.2265],[-93.6249,-34.5831],[-94.453,-34.5827],[-95.1747,-35.059],[-95.9815,-35.1539]]},"properties":{"id":61,"source":3700,"mouth":3817,"parent":0,"basin":61,"widthFactor":1.2,"sourceWidth":0.08,"discharge":144,"name":"Dunstedford","type":"River"}},{"type":"Feature","geometry":{"type":"LineString","coordinates":[[-131.4201,-14.8251],[-132.2569,-15.2021],[-132.8154,-15.9852],[-133.5966,-16.4435],[-134.4016,-16.1622],[-135.2537,-16.3679],[-136.0681,-16.184]]},"properties":{"id":62,"source":2923,"mouth":2922,"parent":0,"basin":62,"widthFactor":1.2,"sourceWidth":0.06,"discharge":53,"name":"Yeoroughton","type":"River"}},{"type":"Feature","geometry":{"type":"LineString","coordinates":[[122.149,-22.0231],[122.862,-21.921],[123.3859,-21.3607],[124.0611,-21.167],[124.065,-20.22],[123.6089,-19.3721],[123.5208,-18.445]]},"properties":{"id":63,"source":3376,"mouth":3250,"parent":0,"basin":63,"widthFactor":1.2,"sourceWidth":0.05,"discharge":53,"name":"Ogodisch","type":"River"}},{"type":"Feature","geometry":{"type":"LineString","coordinates":[[-100.9629,-27.1976],[-100.9668,-27.7897],[-100.5186,-28.2169],[-100.4321,-28.7761],[-100.9499,-29.3067],[-101.0626,-30.0855],[-101.4993,-30.6659]]},"properties":{"id":64,"source":3562,"mouth":3563,"parent":0,"basin":64,"widthFactor":1.2,"sourceWidth":0.06,"discharge":55,"name":"Hitchin","type":"River"}},{"type":"Feature","geometry":{"type":"LineString","coordinates":[[140.7123,0.0778],[141.6673,-0.3022],[142.7063,-0.1911],[143.6781,-0.4729],[144.1945,-0.4875],[144.5519,-0.0416],[145.0365,0.0359]]},"properties":{"id":65,"source":2274,"mouth":2275,"parent":0,"basin":65,"widthFactor":1.2,"sourceWidth":0.07,"discharge":133,"name":"Uxbrid","type":"Stream"}},{"type":"Feature","geometry":{"type":"LineString","coordinates":[[-64.3268,-12.6698],[-64.3959,-13.6168],[-63.9905,-14.4962],[-63.9647,-15.4297],[-63.3622,-15.7452],[-62.6741,-15.5796],[-62.0545,-15.7989],[-60.8404,-15.4048],[-59.826,-14.5774],[-58.6518,-14.0967],[-58.4021,-15.7643],[-57.7149,-17.3072],[-57.3778,-18.9499],[-56.0742,-18.9008],[-54.8475,-18.394],[-53.5593,-18.2534],[-53.2702,-19.0293],[-52.6166,-19.5501],[-52.2546,-20.2749],[-51.4169,-21.1746],[-50.3153,-21.7176],[-49.4248,-22.5459],[-48.8039,-21.9327],[-48.5314,-21.0648],[-47.9802,-20.4007],[-47.6245,-19.6781],[-47.6743,-18.8445],[-47.3997,-18.0998],[-46.7758,-18.1824],[-46.2092,-17.8389],[-45.5968,-17.8364]]},"properties":{"id":68,"source":2839,"mouth":2958,"parent":0,"basin":68,"widthFactor":1.2,"sourceWidth":0.05,"discharge":346,"name":"Hinckham","type":"River"}},{"type":"Feature","geometry":{"type":"LineString","coordinates":[[91.4561,-45.7184],[90.9175,-46.6042],[90.8249,-47.6718],[90.3755,-48.594],[90.3768,-49.9059],[90.8427,-51.1443],[90.9369,-52.4415],[91.4562,-53.0893],[92.2531,-53.3531],[92.8279,-53.9242]]},"properties":{"id":69,"source":4479,"mouth":4717,"parent":0,"basin":69,"widthFactor":1.2,"sourceWidth":0.07,"discharge":96,"name":"Tenetsla","type":"River"}},{"type":"Feature","geometry":{"type":"LineString","coordinates":[[138.0798,3.3166],[137.3025,3.4915],[136.5398,3.1677],[135.7654,3.2428],[134.7443,3.9694],[133.5202,4.2548],[132.4585,4.8931],[131.6881,4.2446],[131.2695,3.285],[130.5695,2.5743]]},"properties":{"id":70,"source":2143,"mouth":2011,"parent":0,"basin":70,"widthFactor":1.2,"sourceWidth":0.04,"discharge":78,"name":"Tamersdon","type":"River"}},{"type":"Feature","geometry":{"type":"LineString","coordinates":[[-67.3673,-45.2415],[-67.8511,-45.8184],[-67.9046,-46.6143],[-68.3023,-47.235],[-69.0319,-48.0181],[-69.3712,-49.0735],[-70.0228,-49.9111]]},"properties":{"id":71,"source":4397,"mouth":4395,"parent":0,"basin":71,"widthFactor":1.2,"sourceWidth":0.04,"discharge":58,"name":"Godford","type":"River"}},{"type":"Feature","geometry":{"type":"LineString","coordinates":[[-59.0044,13.5599],[-57.8703,13.7606],[-56.8939,14.4323],[-55.7914,14.7273],[-55.3658,14.5647],[-54.9759,14.8901],[-54.5575,14.8251]]},"properties":{"id":73,"source":1579,"mouth":1470,"parent":0,"basin":73,"widthFactor":1.2,"sourceWidth":0.05,"discharge":67,"name":"Dalmond","type":"River"}},{"type":"Feature","geometry":{"type":"LineString","coordinates":[[-64.7272,11.2211],[-65.523,9.9389],[-65.886,8.4431],[-66.5952,7.1182],[-66.3925,6.2669],[-65.7705,5.6364],[-65.484,4.8293],[-65.1149,4.2951],[-64.4663,4.1435],[-64.0413,3.6858],[-63.1747,3.0881],[-62.1276,2.9237],[-61.2249,2.4126],[-60.8214,1.6142],[-60.0744,1.1123],[-59.6021,0.3732]]},"properties":{"id":78,"source":1690,"mouth":2075,"parent":0,"basin":78,"widthFactor":1.2,"sourceWidth":0.05,"discharge":125,"name":"Brampton","type":"River"}},{"type":"Feature","geometry":{"type":"LineString","coordinates":[[72.4598,11.4286],[73.6781,10.6894],[75.079,10.4113],[76.3338,9.7643],[76.539,11.1793],[76.2743,12.6006],[76.3855,14.0169],[77.3765,14.7056],[78.055,15.7479],[78.9835,16.5073],[79.4104,16.9199],[79.4406,17.5615],[79.7882,18.02],[80.7769,18.1627],[81.6264,18.7468],[82.5873,18.9778],[83.2613,18.8109],[83.9252,19.1012],[84.5971,19.0257]]},"properties":{"id":79,"source":1725,"mouth":1405,"parent":170,"basin":170,"widthFactor":1,"sourceWidth":0.05,"discharge":170,"name":"Dubutsk","type":"River"}},{"type":"Feature","geometry":{"type":"LineString","coordinates":[[57.6939,12.8494],[56.4553,12.4039],[55.4377,11.5157],[54.2433,10.9816],[53.2986,10.9128],[52.4789,10.3724],[51.5591,10.2093],[50.924,11.0847],[49.9752,11.6076],[49.2773,12.4124],[48.3156,12.8271],[47.2562,12.7805],[46.275,13.1029]]},"properties":{"id":80,"source":1602,"mouth":1598,"parent":0,"basin":80,"widthFactor":1.2,"sourceWidth":0.05,"discharge":113,"name":"Korslavlgo","type":"River"}},{"type":"Feature","geometry":{"type":"LineString","coordinates":[[79.8265,33.3678],[79.7268,34.4748],[79.1659,35.4468],[78.9739,36.5268],[79.0092,37.218],[78.5875,37.796],[78.5313,38.4645],[79.2067,39.4038],[79.4725,40.5642],[80.066,41.5477],[80.0894,42.6178],[79.6647,43.6152],[79.5985,44.6707]]},"properties":{"id":81,"source":825,"mouth":575,"parent":0,"basin":81,"widthFactor":1.2,"sourceWidth":0.05,"discharge":112,"name":"Voinysoro","type":"River"}},{"type":"Feature","geometry":{"type":"LineString","coordinates":[[74.7608,33.1882],[75.3237,34.3994],[75.4293,35.7589],[75.9008,36.9998],[75.2878,37.8456],[74.3585,38.3296],[73.6822,39.1031],[73.522,40.0113],[72.9352,40.7361],[72.6897,41.6075]]},"properties":{"id":82,"source":823,"mouth":661,"parent":0,"basin":82,"widthFactor":1.2,"sourceWidth":0.05,"discharge":79,"name":"Gorderesk","type":"River"}},{"type":"Feature","geometry":{"type":"LineString","coordinates":[[-20.004,-34.5373],[-20.436,-34.2953],[-20.9121,-34.5501],[-21.3528,-34.4075],[-21.9114,-34.171],[-22.5025,-34.4227],[-23.0676,-34.2838],[-23.7476,-33.297],[-24.7552,-32.6486],[-25.5008,-31.7295]]},"properties":{"id":84,"source":3846,"mouth":3843,"parent":0,"basin":84,"widthFactor":1.2,"sourceWidth":0.05,"discharge":62,"name":"Althoketon","type":"River"}},{"type":"Feature","geometry":{"type":"LineString","coordinates":[[70.4213,35.0661],[69.682,36.1037],[68.6068,36.7856],[67.8003,37.7521],[67.8603,38.8028],[67.4542,39.7911],[67.421,40.8293]]},"properties":{"id":85,"source":821,"mouth":740,"parent":0,"basin":85,"widthFactor":1.2,"sourceWidth":0.05,"discharge":52,"name":"Odischersk","type":"River"}},{"type":"Feature","geometry":{"type":"LineString","coordinates":[[-157.055,1.3909],[-157.1658,-0.0727],[-156.7985,-1.5076],[-156.8136,-2.9654],[-157.0996,-3.5267],[-156.9229,-4.1731],[-157.1163,-4.7514]]},"properties":{"id":86,"source":2161,"mouth":2290,"parent":0,"basin":86,"widthFactor":1.2,"sourceWidth":0.04,"discharge":39,"name":"Heyfieldbu","type":"River"}},{"type":"Feature","geometry":{"type":"LineString","coordinates":[[136.6103,-5.4359],[135.6445,-4.8573],[134.5148,-4.7474],[133.5161,-4.2625],[133.8274,-3.8881],[133.691,-3.3655],[133.9127,-2.9614]]},"properties":{"id":87,"source":2538,"mouth":2536,"parent":0,"basin":87,"widthFactor":1.2,"sourceWidth":0.1,"discharge":99,"name":"Shokere","type":"River"}},{"type":"Feature","geometry":{"type":"LineString","coordinates":[[112.1556,-1.4248],[113.535,-1.3007],[114.8076,-0.6903],[116.1656,-0.469],[117.0238,-0.151],[117.6365,0.5843],[118.4456,0.9858],[119.1385,1.0925],[119.6462,1.6392],[120.3021,1.8339],[121.2196,2.869],[121.7656,4.175],[122.6088,5.2643],[122.6559,6.476],[122.2596,7.6352],[122.218,8.8364]]},"properties":{"id":98,"source":2392,"mouth":2005,"parent":0,"basin":98,"widthFactor":1.2,"sourceWidth":0.06,"discharge":129,"name":"Kursk","type":"River"}},{"type":"Feature","geometry":{"type":"LineString","coordinates":[[104.8598,11.0654],[106.1283,10.5492],[107.5066,10.5186],[108.797,10.0996],[109.3418,10.2818],[109.6039,10.8549],[110.0922,11.1153],[111.4141,10.9751],[112.7186,11.3151],[114.037,11.271],[114.0729,11.9657],[113.6663,12.5566],[113.6136,13.2306],[114.2766,14.0406],[114.5546,15.0856],[115.1406,15.9426]]},"properties":{"id":100,"source":1738,"mouth":1625,"parent":0,"basin":100,"widthFactor":1.2,"sourceWidth":0.05,"discharge":122,"name":"Terensk","type":"River"}},{"type":"Feature","geometry":{"type":"LineString","coordinates":[[101.3211,13.045],[101.9336,14.1488],[102.099,15.4316],[102.622,16.5712],[102.1718,17.0644],[101.4885,17.1327],[100.9916,17.541],[101.6584,18.605],[101.9051,19.8677],[102.4879,20.9714],[103.5096,21.1817],[104.3672,21.8324],[105.356,22.1308]]},"properties":{"id":101,"source":1619,"mouth":1313,"parent":0,"basin":101,"widthFactor":1.2,"sourceWidth":0.05,"discharge":148,"name":"Voriloko","type":"River"}},{"type":"Feature","geometry":{"type":"LineString","coordinates":[[-102.3615,52.1401],[-103.0786,53.332],[-104.1615,54.2016],[-104.9518,55.329],[-104.9434,56.0479],[-105.3886,56.6392],[-105.471,57.3326],[-104.9876,58.3486],[-104.9463,59.502],[-104.5514,60.5455]]},"properties":{"id":102,"source":282,"mouth":204,"parent":0,"basin":102,"widthFactor":1.2,"sourceWidth":0.05,"discharge":117,"name":"Harlowces","type":"River"}},{"type":"Feature","geometry":{"type":"LineString","coordinates":[[-114.5773,42.2282],[-113.875,42.8113],[-113.5442,43.7093],[-112.9162,44.3554],[-113.4568,45.594],[-114.3926,46.5682],[-115.0122,47.7539],[-114.979,48.2138],[-115.3785,48.5067],[-115.4318,48.9333]]},"properties":{"id":103,"source":513,"mouth":372,"parent":0,"basin":103,"widthFactor":1.2,"sourceWidth":0.04,"discharge":98,"name":"Chilterton","type":"River"}},{"type":"Feature","geometry":{"type":"LineString","coordinates":[[-27.0776,-55.0936],[-27.2335,-54.4686],[-27.7931,-54.1123],[-28.0298,-53.541],[-28.4909,-53.22],[-29.0653,-53.3739],[-29.5491,-53.1479]]},"properties":{"id":104,"source":4756,"mouth":4655,"parent":0,"basin":104,"widthFactor":1.2,"sourceWidth":0.07,"discharge":73,"name":"Westhersham","type":"Creek"}},{"type":"Feature","geometry":{"type":"LineString","coordinates":[[38.6478,-52.6071],[38.9846,-53.2468],[39.6624,-53.5361],[40.0675,-54.1058],[41.1793,-54.9368],[42.51,-55.3349],[43.6656,-56.0794],[43.9006,-56.8952],[44.5363,-57.4725],[44.8515,-58.2406],[44.4456,-58.8429],[44.3802,-59.5756],[44.4715,-61.1518],[45.0019,-62.6456],[45.1811,-64.2053],[46.0479,-64.7486],[47.0723,-64.865],[47.9706,-65.3228]]},"properties":{"id":117,"source":4696,"mouth":5056,"parent":21,"basin":21,"widthFactor":1,"sourceWidth":0.09,"discharge":140,"name":"Bodetslavl","type":"Fork"}},{"type":"Feature","geometry":{"type":"LineString","coordinates":[[71.7988,-65.3528],[70.949,-65.9391],[70.434,-66.8822],[69.6511,-67.5399],[70.9308,-68.3569],[72.404,-68.7279],[73.7224,-69.4557],[73.6619,-70.3258],[74.0576,-71.1242],[74.0883,-71.98],[74.4002,-72.9588],[75.1091,-73.7091],[75.5004,-74.6421]]},"properties":{"id":119,"source":5066,"mouth":5190,"parent":0,"basin":119,"widthFactor":1.2,"sourceWidth":0.04,"discharge":192,"name":"Clitry","type":"River"}},{"type":"Feature","geometry":{"type":"LineString","coordinates":[[-54.1897,-27.6645],[-53.2754,-27.936],[-52.3254,-27.71],[-51.4039,-27.882],[-50.7062,-28.4188],[-49.8178,-28.5083],[-49.0819,-28.9557],[-48.6182,-29.8038],[-48.0563,-30.337],[-47.3211,-30.5381],[-46.2134,-30.4507],[-45.2103,-29.9117],[-44.1235,-29.7339]]},"properties":{"id":120,"source":3582,"mouth":3718,"parent":0,"basin":120,"widthFactor":1.2,"sourceWidth":0.05,"discharge":125,"name":"Gatreham","type":"River"}},{"type":"Feature","geometry":{"type":"LineString","coordinates":[[115.018,2.5643],[116.4254,2.5988],[117.7565,3.1258],[119.1487,3.2588],[120.3935,3.7562],[121.4098,4.6813],[122.6088,5.2643]]},"properties":{"id":121,"source":2129,"mouth":2130,"parent":98,"basin":98,"widthFactor":1,"sourceWidth":0.04,"discharge":40,"name":"Tritin","type":"River"}},{"type":"Feature","geometry":{"type":"LineString","coordinates":[[87.7105,26.2157],[87.5375,25.6777],[87.8433,25.1577],[87.766,24.6233],[87.5928,23.6086],[87.8894,22.6013],[87.8101,21.588],[87.686,20.6714],[88.0222,19.788],[87.9902,18.878]]},"properties":{"id":122,"source":1110,"mouth":1306,"parent":170,"basin":170,"widthFactor":1,"sourceWidth":0.04,"discharge":44,"name":"Zhinoboty","type":"River"}},{"type":"Feature","geometry":{"type":"LineString","coordinates":[[-11.4284,-58.9729],[-12.3966,-59.2404],[-13.1556,-59.9567],[-14.082,-60.314],[-14.5099,-59.9235],[-15.1133,-59.987],[-15.5764,-59.6874],[-16.3703,-60.1664],[-16.8574,-61.0044],[-17.59,-61.5552]]},"properties":{"id":124,"source":4913,"mouth":4910,"parent":0,"basin":124,"widthFactor":1.2,"sourceWidth":0.06,"discharge":138,"name":"Weyteshil","type":"River"}},{"type":"Feature","geometry":{"type":"LineString","coordinates":[[58.7016,-67.9251],[58.5337,-68.9284],[58.8447,-69.9195],[58.7725,-70.9204],[58.6339,-71.4904],[58.9632,-72.0157],[58.9181,-72.5767]]},"properties":{"id":125,"source":5105,"mouth":5146,"parent":0,"basin":125,"widthFactor":1.2,"sourceWidth":0.07,"discharge":65,"name":"Kremelyi","type":"Creek"}},{"type":"Feature","geometry":{"type":"LineString","coordinates":[[-98.5852,57.58],[-99.4059,58.3234],[-100.4723,58.6385],[-101.3422,59.2962],[-101.8906,59.8288],[-102.663,59.9313],[-103.2562,60.3778]]},"properties":{"id":126,"source":207,"mouth":173,"parent":0,"basin":126,"widthFactor":1.2,"sourceWidth":0.06,"discharge":44,"name":"Thaxningin","type":"River"}},{"type":"Feature","geometry":{"type":"LineString","coordinates":[[109.9274,15.3738],[110.7555,15.5591],[111.3798,16.1958],[112.1671,16.4714],[113.1266,16.1022],[114.1653,16.2153],[115.1406,15.9426]]},"properties":{"id":127,"source":1518,"mouth":1519,"parent":0,"basin":127,"widthFactor":1.2,"sourceWidth":0.05,"discharge":67,"name":"Kobororo","type":"River"}},{"type":"Feature","geometry":{"type":"LineString","coordinates":[[-6.0734,-59.6255],[-6.6869,-60.428],[-6.8748,-61.4593],[-7.4031,-62.3075],[-7.1622,-63.3294],[-6.4938,-64.1481],[-6.1673,-65.1293]]},"properties":{"id":128,"source":4915,"mouth":4967,"parent":0,"basin":128,"widthFactor":1.2,"sourceWidth":0.05,"discharge":73,"name":"Soneton","type":"River"}},{"type":"Feature","geometry":{"type":"LineString","coordinates":[[48.919,-59.3042],[48.0053,-60.3002],[47.4823,-61.585],[46.6467,-62.6388],[46.9209,-63.6229],[47.6129,-64.3834],[47.9706,-65.3228]]},"properties":{"id":139,"source":4939,"mouth":4996,"parent":21,"basin":21,"widthFactor":1,"sourceWidth":0.04,"discharge":36,"name":"Merenilev","type":"River"}},{"type":"Feature","geometry":{"type":"LineString","coordinates":[[65.5051,-67.6477],[65.2016,-68.6717],[65.3742,-69.7515],[65.1659,-70.7867],[64.3853,-71.7466],[64.006,-72.9608],[63.3056,-73.9716],[62.4693,-74.3359],[61.894,-75.0966],[61.11,-75.5401]]},"properties":{"id":141,"source":5108,"mouth":5208,"parent":0,"basin":141,"widthFactor":1.2,"sourceWidth":0.06,"discharge":66,"name":"Altham","type":"River"}},{"type":"Feature","geometry":{"type":"LineString","coordinates":[[-44.4779,25.4953],[-45.3269,25.319],[-45.9805,24.6872],[-46.7904,24.4197],[-47.3701,24.4148],[-47.7938,23.9483],[-48.3423,23.851],[-48.6834,22.7295],[-48.5677,21.5398],[-48.8175,20.4047],[-49.3231,19.7506],[-49.4204,18.8908],[-49.8444,18.1956]]},"properties":{"id":142,"source":1084,"mouth":1275,"parent":0,"basin":142,"widthFactor":1.2,"sourceWidth":0.05,"discharge":115,"name":"Uxbrid","type":"River"}},{"type":"Feature","geometry":{"type":"LineString","coordinates":[[27.2098,-57.0213],[26.683,-57.6937],[26.5871,-58.5842],[26.1465,-59.3002],[25.9312,-60.1417],[26.1855,-60.9998],[26.0641,-61.8446],[26.2628,-62.7989],[26.8844,-63.5609],[27.1676,-64.4767]]},"properties":{"id":143,"source":4867,"mouth":4985,"parent":0,"basin":143,"widthFactor":1.2,"sourceWidth":0.06,"discharge":63,"name":"Degorod","type":"River"}},{"type":"Feature","geometry":{"type":"LineString","coordinates":[[-42.1999,30.4922],[-41.0418,31.0008],[-40.135,31.9342],[-39.0271,32.5277],[-38.1574,32.399],[-37.3226,32.7584],[-36.4598,32.7273]]},"properties":{"id":146,"source":891,"mouth":804,"parent":0,"basin":146,"widthFactor":1.2,"sourceWidth":0.06,"discharge":65,"name":"Coverwick","type":"River"}},{"type":"Feature","geometry":{"type":"LineString","coordinates":[[-79.2249,-49.2506],[-78.507,-49.5521],[-77.7254,-49.3592],[-76.9948,-49.5619],[-76.6842,-50.3623],[-75.9893,-50.8812],[-75.6019,-51.6253]]},"properties":{"id":148,"source":4517,"mouth":4518,"parent":0,"basin":148,"widthFactor":1.2,"sourceWidth":0.06,"discharge":62,"name":"Clitfordbu","type":"River"}},{"type":"Feature","geometry":{"type":"LineString","coordinates":[[-137.3786,2.9654],[-137.5426,3.7158],[-138.13,4.2332],[-138.3787,4.937],[-138.5503,5.8689],[-139.1551,6.6114],[-139.4133,7.5053]]},"properties":{"id":149,"source":2042,"mouth":1914,"parent":0,"basin":149,"widthFactor":1.2,"sourceWidth":0.06,"discharge":50,"name":"Avetownyme","type":"River"}},{"type":"Feature","geometry":{"type":"LineString","coordinates":[[-10.0011,-48.1131],[-10.2794,-47.6113],[-10.8646,-47.4926],[-11.2043,-47.0674],[-11.8602,-47.2938],[-12.2526,-47.9254],[-12.8558,-48.2328],[-13.7555,-48.0981],[-14.6268,-48.4432],[-15.5208,-48.4044]]},"properties":{"id":150,"source":4428,"mouth":4429,"parent":0,"basin":150,"widthFactor":1.2,"sourceWidth":0.06,"discharge":77,"name":"Helsterke","type":"River"}},{"type":"Feature","geometry":{"type":"LineString","coordinates":[[-11.3422,-43.5033],[-11.9189,-43.3098],[-12.4908,-43.6151],[-13.0665,-43.5213],[-13.759,-44.193],[-14.0694,-45.1494],[-14.6855,-45.878]]},"properties":{"id":151,"source":4299,"mouth":4298,"parent":0,"basin":151,"widthFactor":1.2,"sourceWidth":0.05,"discharge":42,"name":"Hencerid","type":"River"}},{"type":"Feature","geometry":{"type":"LineString","coordinates":[[77.4987,-71.5809],[77.1906,-72.1301],[77.351,-72.7831],[77.1366,-73.353],[76.9163,-73.969],[77.1653,-74.6115],[77.0389,-75.2328]]},"properties":{"id":152,"source":5157,"mouth":5192,"parent":0,"basin":152,"widthFactor":1.2,"sourceWidth":0.05,"discharge":58,"name":"Shersfordge","type":"Creek"}},{"type":"Feature","geometry":{"type":"LineString","coordinates":[[87.9902,18.878],[88.8961,18.751],[89.5234,19.5735],[90.3736,19.6364],[91.5845,19.6394],[92.6277,20.3599],[93.805,20.5064],[94.8173,20.866],[95.4958,21.7751],[96.4413,22.2446],[96.8195,23.2761],[96.6242,24.3945],[96.8877,25.4435],[97.5932,26.3223],[97.8138,27.4735],[98.4224,28.4069]]},"properties":{"id":170,"source":1409,"mouth":1114,"parent":0,"basin":170,"widthFactor":1.2,"sourceWidth":0.41,"discharge":426,"name":"Peredin","type":"River"}},{"type":"Feature","geometry":{"type":"LineString","coordinates":[[97.6043,18.0499],[98.5552,18.6892],[99.182,19.6959],[100.0681,20.4086],[100.9157,20.4052],[101.6608,20.8793],[102.4879,20.9714]]},"properties":{"id":172,"source":1414,"mouth":1312,"parent":101,"basin":101,"widthFactor":1,"sourceWidth":0.06,"discharge":51,"name":"Volyla","type":"River"}},{"type":"Feature","geometry":{"type":"LineString","coordinates":[[54.8622,-67.9151],[54.3146,-68.9168],[54.2179,-70.0866],[53.7605,-71.122],[53.5542,-71.68],[53.8174,-72.2548],[53.7049,-72.8162]]},"properties":{"id":173,"source":5104,"mouth":5143,"parent":0,"basin":173,"widthFactor":1.2,"sourceWidth":0.05,"discharge":44,"name":"Sizhkovsk","type":"River"}},{"type":"Feature","geometry":{"type":"LineString","coordinates":[[-141.9289,-5.3741],[-142.5751,-6.0789],[-142.8144,-7.0471],[-143.3792,-7.8047],[-143.9776,-8.2337],[-144.2184,-8.9804],[-144.7453,-9.4729]]},"properties":{"id":174,"source":2425,"mouth":2554,"parent":0,"basin":174,"widthFactor":1.2,"sourceWidth":0.05,"discharge":49,"name":"Wigton","type":"River"}},{"type":"Feature","geometry":{"type":"LineString","coordinates":[[-70.6435,-45.465],[-71.0856,-46.2653],[-71.0707,-47.215],[-71.4214,-48.0452],[-71.1033,-48.7876],[-70.4149,-49.2289],[-70.0228,-49.9111]]},"properties":{"id":175,"source":4393,"mouth":4522,"parent":0,"basin":175,"widthFactor":1.2,"sourceWidth":0.07,"discharge":87,"name":"Bridlingley","type":"River"}},{"type":"Feature","geometry":{"type":"LineString","coordinates":[[-119.4399,43.5931],[-120.2489,44.0411],[-121.1892,44.0094],[-122.0245,44.3614],[-121.4725,44.8289],[-121.3026,45.5811],[-120.827,46.1055]]},"properties":{"id":176,"source":436,"mouth":434,"parent":0,"basin":176,"widthFactor":1.2,"sourceWidth":0.06,"discharge":89,"name":"Kideham","type":"River"}},{"type":"Feature","geometry":{"type":"LineString","coordinates":[[121.1106,-6.5075],[121.5282,-6.8792],[122.1104,-6.7824],[122.5609,-7.0603],[122.2163,-7.9475],[122.3341,-8.9216],[122.082,-9.8262]]},"properties":{"id":177,"source":2653,"mouth":2655,"parent":0,"basin":177,"widthFactor":1.2,"sourceWidth":0.05,"discharge":45,"name":"Svishin","type":"Creek"}},{"type":"Feature","geometry":{"type":"LineString","coordinates":[[36.8526,-63.92],[36.1484,-64.4678],[35.8076,-65.3406],[35.1762,-65.9534],[35.2595,-66.6537],[35.7747,-67.1615],[35.9444,-67.8233]]},"properties":{"id":178,"source":5052,"mouth":5051,"parent":0,"basin":178,"widthFactor":1.2,"sourceWidth":0.06,"discharge":65,"name":"Vidnomiy","type":"River"}},{"type":"Feature","geometry":{"type":"LineString","coordinates":[[-0.8641,-58.9809],[-0.1764,-58.5428],[0.1715,-57.7532],[0.7913,-57.2448],[0.9208,-56.17],[0.5812,-55.1231],[0.6169,-54.0539]]},"properties":{"id":179,"source":4917,"mouth":4852,"parent":0,"basin":179,"widthFactor":1.2,"sourceWidth":0.05,"discharge":67,"name":"Congdon","type":"River"}},{"type":"Feature","geometry":{"type":"LineString","coordinates":[[-120.6048,41.6455],[-121.5768,41.9445],[-122.5951,41.747],[-123.5764,41.9468],[-123.8841,42.3855],[-124.4459,42.4126],[-124.8045,42.769]]},"properties":{"id":180,"source":510,"mouth":433,"parent":0,"basin":180,"widthFactor":1.2,"sourceWidth":0.06,"discharge":89,"name":"Winkleighes","type":"Brook"}},{"type":"Feature","geometry":{"type":"LineString","coordinates":[[23.6232,-47.0355],[22.9846,-46.8359],[22.3459,-47.1353],[21.7073,-47.0355],[21.1847,-47.3459],[21.0106,-47.9845],[20.5577,-48.3605]]},"properties":{"id":181,"source":4452,"mouth":4450,"parent":0,"basin":181,"widthFactor":1.2,"sourceWidth":0.05,"discharge":48,"name":"Karologolo","type":"Creek"}},{"type":"Feature","geometry":{"type":"LineString","coordinates":[[-92.3087,-35.6807],[-92.7306,-36.0154],[-92.826,-36.5588],[-93.4087,-36.2899],[-94.0466,-36.507],[-94.6403,-36.3353],[-95.1656,-36.3516],[-95.5161,-36.8127],[-96.0064,-36.918]]},"properties":{"id":183,"source":3818,"mouth":3934,"parent":0,"basin":183,"widthFactor":1.2,"sourceWidth":0.06,"discharge":114,"name":"Blandbury","type":"Brook"}},{"type":"Feature","geometry":{"type":"LineString","coordinates":[[21.2456,-52.7208],[20.8207,-52.47],[20.342,-52.7149],[19.9063,-52.5632],[19.8736,-51.3811],[19.3799,-50.2939],[19.2549,-49.1308]]},"properties":{"id":184,"source":4687,"mouth":4685,"parent":0,"basin":184,"widthFactor":1.2,"sourceWidth":0.05,"discharge":56,"name":"Dubruisk","type":"River"}},{"type":"Feature","geometry":{"type":"LineString","coordinates":[[-120.7178,36.6905],[-121.0124,37.4375],[-121.6913,37.8868],[-122.0628,38.5743],[-123.0826,38.6012],[-124.0276,38.1451],[-125.0325,38.0754]]},"properties":{"id":185,"source":686,"mouth":597,"parent":0,"basin":185,"widthFactor":1.2,"sourceWidth":0.05,"discharge":81,"name":"Draxningdon","type":"River"}},{"type":"Feature","geometry":{"type":"LineString","coordinates":[[87.9998,41.1805],[88.3511,41.868],[88.2361,42.6693],[88.4941,43.3796],[88.7808,43.846],[88.6078,44.4136],[88.8026,44.9002],[89.3359,45.3923],[89.4843,46.1492],[89.9406,46.6942]]},"properties":{"id":226,"source":579,"mouth":422,"parent":0,"basin":226,"widthFactor":1.2,"sourceWidth":0.05,"discharge":90,"name":"Netowndoles","type":"River"}},{"type":"Feature","geometry":{"type":"LineString","coordinates":[[120.2005,0.6186],[121.0587,-0.0707],[122.1376,-0.3172],[123.0399,-0.918],[124.1374,-0.5663],[125.025,0.2233],[126.0805,0.6625]]},"properties":{"id":227,"source":2261,"mouth":2263,"parent":0,"basin":227,"widthFactor":1.2,"sourceWidth":0.05,"discharge":151,"name":"Rorec","type":"River"}},{"type":"Feature","geometry":{"type":"LineString","coordinates":[[-113.1557,47.7858],[-113.1829,48.4395],[-113.6594,48.9207],[-113.7765,49.5399],[-113.9336,50.1031],[-114.4723,50.3808],[-114.7057,50.8869]]},"properties":{"id":228,"source":373,"mouth":316,"parent":0,"basin":228,"widthFactor":1.2,"sourceWidth":0.05,"discharge":67,"name":"Kington","type":"Creek"}},{"type":"Feature","geometry":{"type":"LineString","coordinates":[[-14.5705,-53.9122],[-15.488,-54.3879],[-16.1155,-55.2608],[-16.975,-55.816],[-17.8483,-55.7789],[-18.6394,-56.2236],[-19.4963,-56.2829]]},"properties":{"id":229,"source":4767,"mouth":4766,"parent":0,"basin":229,"widthFactor":1.2,"sourceWidth":0.07,"discharge":103,"name":"Lytesheadge","type":"River"}},{"type":"Feature","geometry":{"type":"LineString","coordinates":[[-99.7443,59.9588],[-100.1342,60.5833],[-100.841,60.8338],[-101.2943,61.3836],[-101.5178,62.2555],[-102.1581,62.9016],[-102.4649,63.7284]]},"properties":{"id":231,"source":175,"mouth":143,"parent":0,"basin":231,"widthFactor":1.2,"sourceWidth":0.05,"discharge":38,"name":"Gatley","type":"River"}},{"type":"Feature","geometry":{"type":"LineString","coordinates":[[-111.8127,49.2306],[-111.7859,49.7378],[-112.1192,50.1086],[-111.7272,50.7594],[-111.7836,51.556],[-111.4812,52.2359]]},"properties":{"id":232,"source":319,"mouth":317,"parent":0,"basin":232,"widthFactor":1.2,"sourceWidth":0.06,"discharge":76,"name":"Retleley","type":"Creek"}},{"type":"Feature","geometry":{"type":"LineString","coordinates":[[62.4434,-71.5171],[62.0565,-72.0791],[62.1228,-72.8026],[61.8265,-73.3969],[61.4102,-74.0469],[61.4375,-74.8579],[61.11,-75.5401]]},"properties":{"id":233,"source":5185,"mouth":5183,"parent":0,"basin":233,"widthFactor":1.2,"sourceWidth":0.05,"discharge":44,"name":"Dalmondle","type":"Creek"}},{"type":"Feature","geometry":{"type":"LineString","coordinates":[[-52.3427,7.2239],[-51.8258,6.8508],[-51.169,6.9548],[-50.6242,6.6772],[-50.161,6.4191],[-49.6391,6.6466],[-49.1642,6.4856]]},"properties":{"id":234,"source":1826,"mouth":1959,"parent":0,"basin":234,"widthFactor":1.2,"sourceWidth":0.07,"discharge":79,"name":"Oryfield","type":"Creek"}},{"type":"Feature","geometry":{"type":"LineString","coordinates":[[-118.3459,47.2949],[-118.564,47.9215],[-119.1629,48.2455],[-119.4572,48.8115],[-119.7231,49.8266],[-120.4114,50.6272],[-120.7619,51.5993]]},"properties":{"id":235,"source":370,"mouth":314,"parent":0,"basin":235,"widthFactor":1.2,"sourceWidth":0.05,"discharge":78,"name":"Hatley","type":"River"}},{"type":"Feature","geometry":{"type":"LineString","coordinates":[[10.7406,-42.737],[11.9679,-42.8018],[13.1445,-42.3704],[14.3617,-42.3359],[14.929,-42.4457],[15.4271,-42.0715],[15.9806,-42.0845]]},"properties":{"id":276,"source":4313,"mouth":4204,"parent":0,"basin":276,"widthFactor":1.2,"sourceWidth":0.1,"discharge":85,"name":"Wighamber","type":"River"}},{"type":"Feature","geometry":{"type":"LineString","coordinates":[[65.1219,36.5009],[65.6463,36.5239],[65.9773,37.0033],[66.463,37.1175],[66.5505,38.2302],[66.1702,39.2967],[66.1641,40.4002]]},"properties":{"id":277,"source":737,"mouth":739,"parent":0,"basin":277,"widthFactor":1.2,"sourceWidth":0.04,"discharge":60,"name":"Altonces","type":"River"}},{"type":"Feature","geometry":{"type":"LineString","coordinates":[[155.4591,28.0956],[154.978,28.1768],[154.6123,27.7739],[154.1543,27.7583],[153.5434,28.2363],[152.7514,28.2627],[152.1043,28.6503]]},"properties":{"id":278,"source":1038,"mouth":1039,"parent":0,"basin":278,"widthFactor":1.2,"sourceWidth":0.07,"discharge":96,"name":"Harton","type":"Brook"}},{"type":"Feature","geometry":{"type":"LineString","coordinates":[[84.4534,45.2195],[84.3689,45.9616],[83.8411,46.5148],[83.6679,47.2191],[84.4048,47.243],[85.0078,47.7359],[85.7179,47.8537]]},"properties":{"id":279,"source":493,"mouth":417,"parent":0,"basin":279,"widthFactor":1.2,"sourceWidth":0.04,"discharge":70,"name":"Mantontave","type":"Brook"}}]}